LEMUR-2-DEMBITZ         
1 42842U 17042T   26068.47492167  .00020231  00000+0  76561-3 0  9991
2 42842  97.3807 250.9241 0006961  17.1421 343.0051 15.26947128473114
STARLINK-36104          
1 66964U 25288F   26068.29645574  .00035609  00000+0  12970-2 0  9993
2 66964  43.0015  25.9869 0001499 276.8839  83.1842 15.27586411 15227
